NORAD_CAT_ID,OBJECT_NAME,OBJECT_TYPE,EPOCH,MEAN_MOTION,ECCENTRICITY,INCLINATION,RA_OF_ASC_NODE,ARG_OF_PERICENTER,MEAN_ANOMALY,BSTAR,MEAN_MOTION_DOT,MEAN_MOTION_DDOT,TLE_LINE0,TLE_LINE1,TLE_LINE2,SEMIMAJOR_AXIS,PERIOD,APOGEE,PERIGEE,DECAYED
51983.0,STARLINK-3655,PAYLOAD,2023-11-22 22:33:09,15.0885028,0.0001456,53.2154,199.9254,108.2654,251.8497,0.00023615,3.473e-05,0.0,0 STARLINK-3655,1 51983U 22025AD  23326.93969298  .00003473  00000-0  23615-3 0  9995,2 51983  53.2154 199.9254 0001456 108.2654 251.8497 15.08850280 94588,6917.849,95.437,540.721,538.707,0.0
51983.0,STARLINK-3655,PAYLOAD,2023-11-23 19:13:11,15.08833268,0.0001774,53.2156,196.0626,121.5495,238.567,-2.3703e-05,-6.65e-06,0.0,0 STARLINK-3655,1 51983U 22025AD  23327.80082184 -.00000665  00000-0 -23703-4 0  9993,2 51983  53.2156 196.0626 0001774 121.5495 238.5670 15.08833268 95836,6917.901,95.438,540.993,538.539,0.0
51983.0,STARLINK-3655,PAYLOAD,2023-11-23 20:48:34,15.08830939,0.0001649,53.2169,195.7622,128.7777,231.3363,2.2302e-05,6.7e-07,0.0,0 STARLINK-3655,1 51983U 22025AD  23327.86706299  .00000067  00000-0  22302-4 0  9997,2 51983  53.2169 195.7622 0001649 128.7777 231.3363 15.08830939 94724,6917.908,95.438,540.914,538.632,0.0
51983.0,STARLINK-3655,PAYLOAD,2023-11-24 01:34:43,15.08828845,0.0001866,53.2167,194.8735,123.0134,237.1038,-8.598e-05,-1.656e-05,0.0,0 STARLINK-3655,1 51983U 22025AD  23328.06578363 -.00001656  00000-0 -85980-4 0  9997,2 51983  53.2167 194.8735 0001866 123.0134 237.1038 15.08828845 94752,6917.914,95.438,541.07,538.489,0.0
51983.0,STARLINK-3655,PAYLOAD,2023-11-24 20:39:21,15.08834158,0.0001386,53.2162,191.3046,101.7456,258.3692,-3.4546e-05,-8.38e-06,0.0,0 STARLINK-3655,1 51983U 22025AD  23328.86066995 -.00000838  00000-0 -34546-4 0  9991,2 51983  53.2162 191.3046 0001386 101.7456 258.3692 15.08834158 94879,6917.898,95.438,540.722,538.804,0.0
51983.0,STARLINK-3655,PAYLOAD,2023-11-24 23:50:08,15.08837061,0.0001363,53.2155,190.7079,96.5796,263.5351,0.00013425,1.849e-05,0.0,0 STARLINK-3655,1 51983U 22025AD  23328.99314973  .00001849  00000-0  13425-3 0  9990,2 51983  53.2155 190.7079 0001363  96.5796 263.5351 15.08837061 96017,6917.889,95.438,540.697,538.811,0.0
51983.0,STARLINK-3655,PAYLOAD,2023-11-25 09:22:26,15.08840417,0.0001235,53.2143,188.9248,91.51,268.6034,0.00028724,4.287e-05,0.0,0 STARLINK-3655,1 51983U 22025AD  23329.39059012  .00004287  00000-0  28724-3 0  9992,2 51983  53.2143 188.9248 0001235  91.5100 268.6034 15.08840417 94957,6917.879,95.438,540.598,538.89,0.0
51983.0,STARLINK-3655,PAYLOAD,2023-11-25 22:05:31,15.08866467,0.000131,53.2145,186.5484,92.2605,267.8537,0.00074928,0.00011666,0.0,0 STARLINK-3655,1 51983U 22025AD  23329.92050207  .00011666  00000-0  74928-3 0  9994,2 51983  53.2145 186.5484 0001310  92.2605 267.8537 15.08866467 95039,6917.799,95.436,540.571,538.758,0.0
51983.0,STARLINK-3655,PAYLOAD,2023-11-26 13:59:22,15.08854498,0.0001601,53.2136,183.5734,74.9997,285.1172,0.00028739,4.291e-05,0.0,0 STARLINK-3655,1 51983U 22025AD  23330.58290220  .00004291  00000-0  28739-3 0  9994,2 51983  53.2136 183.5734 0001601  74.9997 285.1172 15.08854498 95138,6917.836,95.437,540.809,538.594,0.0
51983.0,STARLINK-3655,PAYLOAD,2023-11-26 18:45:32,15.08849736,0.0001303,53.2147,182.6756,88.2128,271.9013,3.9457e-05,3.4e-06,0.0,0 STARLINK-3655,1 51983U 22025AD  23330.78162263  .00000340  00000-0  39457-4 0  9992,2 51983  53.2147 182.6756 0001303  88.2128 271.9013 15.08849736 96280,6917.851,95.437,540.617,538.814,0.0
51983.0,STARLINK-3655,PAYLOAD,2023-11-26 21:56:18,15.08841832,0.0001151,53.2148,182.0823,88.8406,271.2718,-0.00010822,-2.01e-05,0.0,0 STARLINK-3655,1 51983U 22025AD  23330.91410282 -.00002010  00000-0 -10822-3 0  9996,2 51983  53.2148 182.0823 0001151  88.8406 271.2718 15.08841832 95188,6917.875,95.437,540.536,538.944,0.0
51983.0,STARLINK-3655,PAYLOAD,2023-11-27 13:50:10,15.08833735,0.000133,53.2141,179.1118,79.1688,280.9454,-3.3146e-05,-8.15e-06,0.0,0 STARLINK-3655,1 51983U 22025AD  23331.57650852 -.00000815  00000-0 -33146-4 0  9994,2 51983  53.2141 179.1118 0001330  79.1688 280.9454 15.08833735 95287,6917.9,95.438,540.685,538.844,0.0
51983.0,STARLINK-3655,PAYLOAD,2023-11-27 20:11:42,15.0883737,0.0001402,53.214,177.9227,76.3051,283.8097,3.2347e-05,2.27e-06,0.0,0 STARLINK-3655,1 51983U 22025AD  23331.84146906  .00000227  00000-0  32347-4 0  9991,2 51983  53.2140 177.9227 0001402  76.3051 283.8097 15.08837370 95325,6917.888,95.438,540.723,538.784,0.0
51983.0,STARLINK-3655,PAYLOAD,2023-11-28 13:40:57,15.08842401,0.0001466,53.214,174.6511,68.2039,291.9109,0.00032207,4.842e-05,0.0,0 STARLINK-3655,1 51983U 22025AD  23332.57011032  .00004842  00000-0  32207-3 0  9994,2 51983  53.2140 174.6511 0001466  68.2039 291.9109 15.08842401 95438,6917.873,95.437,540.752,538.724,0.0
51983.0,STARLINK-3655,PAYLOAD,2023-11-28 20:02:29,15.08847481,0.0001534,53.2144,173.4612,66.1229,293.9923,0.00037842,5.741e-05,0.0,0 STARLINK-3655,1 51983U 22025AD  23332.83506833  .00005741  00000-0  37842-3 0  9990,2 51983  53.2144 173.4612 0001534  66.1229 293.9923 15.08847481 96592,6917.858,95.437,540.784,538.661,0.0
51983.0,STARLINK-3655,PAYLOAD,2023-11-29 19:53:16,15.08845572,0.0001347,53.2144,168.9972,104.1952,255.919,0.00016579,2.352e-05,0.0,0 STARLINK-3655,1 51983U 22025AD  23333.82866695  .00002352  00000-0  16579-3 0  9994,2 51983  53.2144 168.9972 0001347 104.1952 255.9190 15.08845572 96748,6917.863,95.437,540.66,538.797,0.0
51983.0,STARLINK-3655,PAYLOAD,2023-11-30 19:44:03,15.08846069,0.000127,53.2158,164.5371,95.8079,264.3058,0.00013829,1.914e-05,0.0,0 STARLINK-3655,1 51983U 22025AD  23334.82226643  .00001914  00000-0  13829-3 0  9996,2 51983  53.2158 164.5371 0001270  95.8079 264.3058 15.08846069 96894,6917.862,95.437,540.605,538.848,0.0
51983.0,STARLINK-3655,PAYLOAD,2023-12-01 19:34:50,15.08845847,0.0001463,53.216,160.0794,97.0844,263.0314,0.00020691,3.007e-05,0.0,0 STARLINK-3655,1 51983U 22025AD  23335.81586702  .00003007  00000-0  20691-3 0  9991,2 51983  53.2160 160.0794 0001463  97.0844 263.0314 15.08845847 95922,6917.863,95.437,540.74,538.715,0.0
51983.0,STARLINK-3655,PAYLOAD,2023-12-02 13:04:05,15.08842189,0.0001475,53.2161,156.8085,95.6597,264.4564,9.2699e-05,1.188e-05,0.0,0 STARLINK-3655,1 51983U 22025AD  23336.54450732  .00001188  00000-0  92699-4 0  9991,2 51983  53.2161 156.8085 0001475  95.6597 264.4564 15.08842189 96032,6917.874,95.437,540.759,538.718,0.0
51983.0,STARLINK-3655,PAYLOAD,2023-12-02 17:50:14,15.0884014,0.0001628,53.2156,155.9163,111.4358,248.6808,4.1681e-05,3.75e-06,0.0,0 STARLINK-3655,1 51983U 22025AD  23336.74322804  .00000375  00000-0  41681-4 0  9993,2 51983  53.2156 155.9163 0001628 111.4358 248.6808 15.08840140 97182,6917.88,95.438,540.871,538.619,0.0
51983.0,STARLINK-3655,PAYLOAD,2023-12-03 19:16:25,15.08829297,0.0001565,53.2156,151.1592,101.026,259.0908,6.2493e-06,-1.89e-06,0.0,0 STARLINK-3655,1 51983U 22025AD  23337.80307807 -.00000189  00000-0  62493-5 0  9996,2 51983  53.2156 151.1592 0001565 101.0260 259.0908 15.08829297 97348,6917.913,95.438,540.861,538.695,0.0
51983.0,STARLINK-3655,PAYLOAD,2023-12-04 11:10:17,15.08832193,0.0001319,53.2154,148.1855,88.015,272.0993,5.8767e-08,-2.87e-06,0.0,0 STARLINK-3655,1 51983U 22025AD  23338.46547914 -.00000287  00000-0  58767-7 0  9994,2 51983  53.2154 148.1855 0001319  88.0150 272.0993 15.08832193 96328,6917.904,95.438,540.682,538.857,0.0
51983.0,STARLINK-3655,PAYLOAD,2023-12-04 20:42:36,15.08835526,0.0001339,53.2152,146.4019,87.4002,272.7144,6.4585e-06,-1.85e-06,0.0,0 STARLINK-3655,1 51983U 22025AD  23338.86291944 -.00000185  00000-0  64585-5 0  9997,2 51983  53.2152 146.4019 0001339  87.4002 272.7144 15.08835526 96384,6917.894,95.438,540.685,538.833,0.0
51983.0,STARLINK-3655,PAYLOAD,2023-12-05 20:33:23,15.08843217,0.0001285,53.2161,141.94,93.6225,266.4914,0.00020842,3.031e-05,0.0,0 STARLINK-3655,1 51983U 22025AD  23339.85651674  .00003031  00000-0  20842-3 0  9995,2 51983  53.2161 141.9400 0001285  93.6225 266.4914 15.08843217 96532,6917.871,95.437,540.625,538.847,0.0
51983.0,STARLINK-3655,PAYLOAD,2023-12-06 10:51:51,15.08845232,0.0001325,53.2166,139.2646,91.4931,268.6213,9.5451e-05,1.232e-05,0.0,0 STARLINK-3655,1 51983U 22025AD  23340.45267422  .00001232  00000-0  95451-4 0  9997,2 51983  53.2166 139.2646 0001325  91.4931 268.6213 15.08845232 96629,6917.864,95.437,540.646,538.813,0.0
51983.0,STARLINK-3655,PAYLOAD,2023-12-07 20:14:56,15.08845056,0.0001268,53.2155,133.0188,89.6587,270.4551,6.1979e-05,6.99e-06,0.0,0 STARLINK-3655,1 51983U 22025AD  23341.84371476  .00000699  00000-0  61979-4 0  9990,2 51983  53.2155 133.0188 0001268  89.6587 270.4551 15.08845056 97959,6917.865,95.437,540.607,538.853,0.0
51983.0,STARLINK-3655,PAYLOAD,2023-12-08 10:33:25,15.08840438,0.0001422,53.216,130.3407,94.9731,265.1424,1.3813e-06,-2.66e-06,0.0,0 STARLINK-3655,1 51983U 22025AD  23342.43987735 -.00000266  00000-0  13813-5 0  9993,2 51983  53.2160 130.3407 0001422  94.9731 265.1424 15.08840438 96926,6917.879,95.438,540.728,538.76,0.0
51983.0,STARLINK-3655,PAYLOAD,2023-12-09 13:34:58,15.08838365,0.0001303,53.2161,125.2852,99.0916,261.0224,-1.0943e-05,-4.62e-06,0.0,0 STARLINK-3655,1 51983U 22025AD  23343.56595902 -.00000462  00000-0 -10943-4 0  9998,2 51983  53.2161 125.2852 0001303  99.0916 261.0224 15.08838365 97091,6917.885,95.438,540.652,538.849,0.0
51983.0,STARLINK-3655,PAYLOAD,2023-12-09 19:56:31,15.08838197,0.00013,53.2162,124.096,98.0923,262.0216,-9.8353e-06,-4.44e-06,0.0,0 STARLINK-3655,1 51983U 22025AD  23343.83091949 -.00000444  00000-0 -98353-5 0  9992,2 51983  53.2162 124.0960 0001300  98.0923 262.0216 15.08838197 98257,6917.886,95.438,540.65,538.852,0.0
51983.0,STARLINK-3655,PAYLOAD,2023-12-10 13:25:48,15.08817504,0.0001695,53.2156,120.8193,117.892,242.2244,-0.00015331,-2.726e-05,0.0,0 STARLINK-3655,1 51983U 22025AD  23344.55958418 -.00002726  00000-0 -15331-3 0  9993,2 51983  53.2156 120.8193 0001695 117.8920 242.2244 15.08817504 97244,6917.949,95.439,540.987,538.642,0.0
